0 COSMOS 249 DEB
1 03755U 68091AT  13280.95304118  .00000715  00000-0  10601-2 0  3705
2 03755 062.2549 087.9186 0778407 204.5750 243.4385 12.74832042 55041
0 COSMOS 249 DEB
1 03755U 68091AT  13284.47263001  .00001030  00000-0  14791-2 0  3717
2 03755 062.2557 079.5275 0778314 205.3418 196.2399 12.74839801 55492
0 COSMOS 249 DEB
1 03755U 68091AT  13286.92833071  .00001281  00000-0  18138-2 0  3727
2 03755 062.2563 073.6730 0778190 205.8771 306.5089 12.74846434 55806
0 COSMOS 249 DEB
1 03755U 68091AT  13289.97834729  .00001418  00000-0  19979-2 0  3733
2 03755 062.2572 066.4018 0778075 206.5425 264.4172 12.74856461 56190
0 COSMOS 249 DEB
1 03755U 68091AT  13292.95935424  .00001687  00000-0  23555-2 0  3743
2 03755 062.2574 059.2954 0777960 207.1992 265.7079 12.74865502 56577
